{"type": "FeatureCollection", "features": [ {"type": "Feature", "properties": {"norad_id": 41335, "name": "SENTINEL-3A", "group": "resource", "lat": 68.2340020269034, "lon": 21.691973023653283, "alt_km": 795.3217392643992, "timestamp": "2025-12-04T21:36:15.531661+00:00", "meta": {"OBJECT_NAME": "SENTINEL-3A", "OBJECT_ID": "2016-011A", "EPOCH": "2025-12-04T14:32:43.056960", "MEAN_MOTION": 14.26741862, "ECCENTRICITY": 9.782e-05, "INCLINATION": 98.6218, "RA_OF_ASC_NODE": 43.7351, "ARG_OF_PERICENTER": 91.4369, "MEAN_ANOMALY": 268.6924, "EPHEMERIS_TYPE": 0, "CLASSIFICATION_TYPE": "U", "NORAD_CAT_ID": 41335, "ELEMENT_SET_NO": 999, "REV_AT_EPOCH": 51031, "BSTAR": 0.00014879543, "MEAN_MOTION_DOT": 3.17e-06, "MEAN_MOTION_DDOT": 0}, "tle": {"line1": "1 41335U 16011A   25338.60605390  .00000317  00000+0  14880-3 0  9999", "line2": "2 41335  98.6218  43.7351 0000978  91.4369 268.6924 14.26741862510319"}}, "geometry": {"type": "Point", "coordinates": [21.691973023653283, 68.2340020269034]}}, {"type": "Feature", "properties": {"norad_id": 41556, "name": "ZIYUAN 3-2 (ZY 3-2)", "group": "resource", "lat": 33.9579858021044, "lon": 48.17128867176491, "alt_km": 503.3007494810754, "timestamp": "2025-12-04T21:36:15.531671+00:00", "meta": {"OBJECT_NAME": "ZIYUAN 3-2 (ZY 3-2)", "OBJECT_ID": "2016-033A", "EPOCH": "2025-12-04T15:08:23.039808", "MEAN_MOTION": 15.21321457, "ECCENTRICITY": 0.0012458, "INCLINATION": 97.4059, "RA_OF_ASC_NODE": 52.9317, "ARG_OF_PERICENTER": 280.7524, "MEAN_ANOMALY": 79.2309, "EPHEMERIS_TYPE": 0, "CLASSIFICATION_TYPE": "U", "NORAD_CAT_ID": 41556, "ELEMENT_SET_NO": 999, "REV_AT_EPOCH": 52840, "BSTAR": 0.00070806032, "MEAN_MOTION_DOT": 0.00015832, "MEAN_MOTION_DDOT": 0}, "tle": {"line1": "1 41556U 16033A   25338.63082222  .00015832  00000+0  70806-3 0  9992", "line2": "2 41556  97.4059  52.9317 0012458 280.7524  79.2309 15.21321457528402"}}, "geometry": {"type": "Point", "coordinates": [48.17128867176491, 33.9579858021044]}}, {"type": "Feature", "properties": {"norad_id": 41599, "name": "CARTOSAT-2C", "group": "resource", "lat": 39.042590538167545, "lon": 30.115785939293467, "alt_km": 500.3934999536632, "timestamp": "2025-12-04T21:36:15.531681+00:00", "meta": {"OBJECT_NAME": "CARTOSAT-2C", "OBJECT_ID": "2016-040A", "EPOCH": "2025-12-04T15:06:29.580192", "MEAN_MOTION": 15.19186506, "ECCENTRICITY": 0.0010994, "INCLINATION": 97.4778, "RA_OF_ASC_NODE": 35.963, "ARG_OF_PERICENTER": 89.2559, "MEAN_ANOMALY": 270.9935, "EPHEMERIS_TYPE": 0, "CLASSIFICATION_TYPE": "U", "NORAD_CAT_ID": 41599, "ELEMENT_SET_NO": 999, "REV_AT_EPOCH": 52417, "BSTAR": 0.00053277, "MEAN_MOTION_DOT": 0.00011165, "MEAN_MOTION_DDOT": 0}, "tle": {"line1": "1 41599U 16040A   25338.62950903  .00011165  00000+0  53277-3 0  9994", "line2": "2 41599  97.4778  35.9630 0010994  89.2559 270.9935 15.19186506524175"}}, "geometry": {"type": "Point", "coordinates": [30.115785939293467, 39.042590538167545]}}, {"type": "Feature", "properties": {"norad_id": 41601, "name": "SKYSAT-C1", "group": "resource", "lat": 79.2488518464114, "lon": -23.848977348642272, "alt_km": 459.8935924709758, "timestamp": "2025-12-04T21:36:15.531692+00:00", "meta": {"OBJECT_NAME": "SKYSAT-C1", "OBJECT_ID": "2016-040C", "EPOCH": "2025-12-04T14:58:47.859456", "MEAN_MOTION": 15.32366454, "ECCENTRICITY": 0.00032109, "INCLINATION": 96.9832, "RA_OF_ASC_NODE": 16.0969, "ARG_OF_PERICENTER": 35.808, "MEAN_ANOMALY": 324.3377, "EPHEMERIS_TYPE": 0, "CLASSIFICATION_TYPE": "U", "NORAD_CAT_ID": 41601, "ELEMENT_SET_NO": 999, "REV_AT_EPOCH": 52803, "BSTAR": 0.00060507212, "MEAN_MOTION_DOT": 0.00018864, "MEAN_MOTION_DDOT": 0}, "tle": {"line1": "1 41601U 16040C   25338.62416504  .00018864  00000+0  60507-3 0  9999", "line2": "2 41601  96.9832  16.0969 0003210  35.8080 324.3377 15.32366454528038"}}, "geometry": {"type": "Point", "coordinates": [-23.848977348642272, 79.2488518464114]}}, {"type": "Feature", "properties": {"norad_id": 41603, "name": "LAPAN-A3", "group": "resource", "lat": -71.54061259174922, "lon": 134.67931742248268, "alt_km": 481.29208022493276, "timestamp": "2025-12-04T21:36:15.531702+00:00", "meta": {"OBJECT_NAME": "LAPAN-A3", "OBJECT_ID": "2016-040E", "EPOCH": "2025-12-04T15:47:53.925792", "MEAN_MOTION": 15.31453203, "ECCENTRICITY": 0.00106871, "INCLINATION": 97.1419, "RA_OF_ASC_NODE": 336.5094, "ARG_OF_PERICENTER": 3.8066, "MEAN_ANOMALY": 356.3255, "EPHEMERIS_TYPE": 0, "CLASSIFICATION_TYPE": "U", "NORAD_CAT_ID": 41603, "ELEMENT_SET_NO": 999, "REV_AT_EPOCH": 52502, "BSTAR": 0.00025209386, "MEAN_MOTION_DOT": 7.596e-05, "MEAN_MOTION_DDOT": 0}, "tle": {"line1": "1 41603U 16040E   25338.65826303  .00007596  00000+0  25209-3 0  9996", "line2": "2 41603  97.1419 336.5094 0010687   3.8066 356.3255 15.31453203525022"}}, "geometry": {"type": "Point", "coordinates": [134.67931742248268, -71.54061259174922]}}, {"type": "Feature", "properties": {"norad_id": 41604, "name": "BIROS", "group": "resource", "lat": -75.89008000214143, "lon": 39.62325595790772, "alt_km": 320.187523688428, "timestamp": "2025-12-04T21:36:15.531712+00:00", "meta": {"OBJECT_NAME": "BIROS", "OBJECT_ID": "2016-040F", "EPOCH": "2025-12-04T14:21:45.695520", "MEAN_MOTION": 15.86388554, "ECCENTRICITY": 0.00028933, "INCLINATION": 97.0693, "RA_OF_ASC_NODE": 9.7256, "ARG_OF_PERICENTER": 168.0467, "MEAN_ANOMALY": 192.0874, "EPHEMERIS_TYPE": 0, "CLASSIFICATION_TYPE": "U", "NORAD_CAT_ID": 41604, "ELEMENT_SET_NO": 999, "REV_AT_EPOCH": 52743, "BSTAR": 0.00092981699, "MEAN_MOTION_DOT": 0.00237554, "MEAN_MOTION_DDOT": 0}, "tle": {"line1": "1 41604U 16040F   25338.59844555  .00237554  00000+0  92982-3 0  9990", "line2": "2 41604  97.0693   9.7256 0002893 168.0467 192.0874 15.86388554527439"}}, "geometry": {"type": "Point", "coordinates": [39.62325595790772, -75.89008000214143]}}, {"type": "Feature", "properties": {"norad_id": 41727, "name": "GAOFEN-3", "group": "resource", "lat": 25.447158744493798, "lon": -19.427958588446586, "alt_km": 749.5872558797273, "timestamp": "2025-12-04T21:36:15.531722+00:00", "meta": {"OBJECT_NAME": "GAOFEN-3", "OBJECT_ID": "2016-049A", "EPOCH": "2025-12-04T14:49:30.086112", "MEAN_MOTION": 14.42209977, "ECCENTRICITY": 0.00015811, "INCLINATION": 98.4041, "RA_OF_ASC_NODE": 344.3278, "ARG_OF_PERICENTER": 72.2484, "MEAN_ANOMALY": 287.8878, "EPHEMERIS_TYPE": 0, "CLASSIFICATION_TYPE": "U", "NORAD_CAT_ID": 41727, "ELEMENT_SET_NO": 999, "REV_AT_EPOCH": 49060, "BSTAR": 2.964645e-06, "MEAN_MOTION_DOT": -3.4e-07, "MEAN_MOTION_DDOT": 0}, "tle": {"line1": "1 41727U 16049A   25338.61770933 -.00000034  00000+0  29646-5 0  9997", "line2": "2 41727  98.4041 344.3278 0001581  72.2484 287.8878 14.42209977490604"}}, "geometry": {"type": "Point", "coordinates": [-19.427958588446586, 25.447158744493798]}}, {"type": "Feature", "properties": {"norad_id": 41771, "name": "SKYSAT-C4", "group": "resource", "lat": 72.06333602913104, "lon": -153.43164252495902, "alt_km": 433.0245760804228, "timestamp": "2025-12-04T21:36:15.531733+00:00", "meta": {"OBJECT_NAME": "SKYSAT-C4", "OBJECT_ID": "2016-058B", "EPOCH": "2025-12-04T14:54:49.524192", "MEAN_MOTION": 15.41902594, "ECCENTRICITY": 7.872e-05, "INCLINATION": 96.9377, "RA_OF_ASC_NODE": 4.2062, "ARG_OF_PERICENTER": 123.0902, "MEAN_ANOMALY": 237.0422, "EPHEMERIS_TYPE": 0, "CLASSIFICATION_TYPE": "U", "NORAD_CAT_ID": 41771, "ELEMENT_SET_NO": 999, "REV_AT_EPOCH": 51542, "BSTAR": 0.00068249585, "MEAN_MOTION_DOT": 0.00028987, "MEAN_MOTION_DDOT": 0}, "tle": {"line1": "1 41771U 16058B   25338.62140653  .00028987  00000+0  68250-3 0  9995", "line2": "2 41771  96.9377   4.2062 0000787 123.0902 237.0422 15.41902594515423"}}, "geometry": {"type": "Point", "coordinates": [-153.43164252495902, 72.06333602913104]}}, {"type": "Feature", "properties": {"norad_id": 41772, "name": "SKYSAT-C5", "group": "resource", "lat": -31.468322227536934, "lon": -161.39800658047474, "alt_km": 465.13221324543247, "timestamp": "2025-12-04T21:36:15.531743+00:00", "meta": {"OBJECT_NAME": "SKYSAT-C5", "OBJECT_ID": "2016-058C", "EPOCH": "2025-12-04T01:55:03.026496", "MEAN_MOTION": 15.35427331, "ECCENTRICITY": 0.00029032, "INCLINATION": 97.0762, "RA_OF_ASC_NODE": 22.1744, "ARG_OF_PERICENTER": 128.7771, "MEAN_ANOMALY": 231.3733, "EPHEMERIS_TYPE": 0, "CLASSIFICATION_TYPE": "U", "NORAD_CAT_ID": 41772, "ELEMENT_SET_NO": 999, "REV_AT_EPOCH": 51383, "BSTAR": 0.0030293433, "MEAN_MOTION_DOT": 0.00105513, "MEAN_MOTION_DDOT": 0}, "tle": {"line1": "1 41772U 16058C   25338.07989614  .00105513  00000+0  30293-2 0  9999", "line2": "2 41772  97.0762  22.1744 0002903 128.7771 231.3733 15.35427331513837"}}, "geometry": {"type": "Point", "coordinates": [-161.39800658047474, -31.468322227536934]}}, {"type": "Feature", "properties": {"norad_id": 41773, "name": "SKYSAT-C2", "group": "resource", "lat": 9.21944999618833, "lon": -175.09022185317048, "alt_km": 458.3321900820092, "timestamp": "2025-12-04T21:36:15.531753+00:00", "meta": {"OBJECT_NAME": "SKYSAT-C2", "OBJECT_ID": "2016-058D", "EPOCH": "2025-12-04T14:36:53.478720", "MEAN_MOTION": 15.36993791, "ECCENTRICITY": 0.00050045, "INCLINATION": 97.0364, "RA_OF_ASC_NODE": 3.4822, "ARG_OF_PERICENTER": 55.1675, "MEAN_ANOMALY": 305.004, "EPHEMERIS_TYPE": 0, "CLASSIFICATION_TYPE": "U", "NORAD_CAT_ID": 41773, "ELEMENT_SET_NO": 999, "REV_AT_EPOCH": 51511, "BSTAR": 0.00064094721, "MEAN_MOTION_DOT": 0.00023167, "MEAN_MOTION_DDOT": 0}, "tle": {"line1": "1 41773U 16058D   25338.60895230  .00023167  00000+0  64095-3 0  9991", "line2": "2 41773  97.0364   3.4822 0005004  55.1675 305.0040 15.36993791515118"}}, "geometry": {"type": "Point", "coordinates": [-175.09022185317048, 9.21944999618833]}}]}